[{"OBJECT_NAME":"TIANQI-12","OBJECT_ID":"2021-039D","EPOCH":"2026-03-09T20:15:13.550976","MEAN_MOTION":15.10910107,"ECCENTRICITY":0.00035548,"INCLINATION":34.9981,"RA_OF_ASC_NODE":219.5618,"ARG_OF_PERICENTER":141.9564,"MEAN_ANOMALY":218.1398,"EPHEMERIS_TYPE":0,"CLASSIFICATION_TYPE":"U","NORAD_CAT_ID":48426,"ELEMENT_SET_NO":999,"REV_AT_EPOCH":26518,"BSTAR":0.00053797391,"MEAN_MOTION_DOT":9.139e-5,"MEAN_MOTION_DDOT":0},{"OBJECT_NAME":"STARLINK-5695","OBJECT_ID":"2023-015AN","EPOCH":"2026-03-09T22:00:01.999584","MEAN_MOTION":15.12778701,"ECCENTRICITY":0.0001487,"INCLINATION":42.9994,"RA_OF_ASC_NODE":337.4442,"ARG_OF_PERICENTER":225.7062,"MEAN_ANOMALY":61.9629,"EPHEMERIS_TYPE":0,"CLASSIFICATION_TYPE":"U","NORAD_CAT_ID":55485,"ELEMENT_SET_NO":999,"REV_AT_EPOCH":577,"BSTAR":0.00099175492,"MEAN_MOTION_DOT":0.00017529,"MEAN_MOTION_DDOT":0}]
